MOVE-II                 
1 43780U 18099Y   23241.39798007  .00010263  00000+0  72222-3 0  9993
2 43780  97.5655 303.9263 0007563 259.7646 100.2728 15.05223639258749
SNUSAT-2                
1 43782U 18099AA  23240.96477148  .00004481  00000+0  36040-3 0  9990
2 43782  97.5628 301.0543 0013284 200.3680 159.7016 15.00420342258540
SNUGLITE                
1 43784U 18099AC  23241.35252011  .00004474  00000+0  35430-3 0  9990
2 43784  97.5516 301.0982 0007850 206.3102 153.7725 15.01053625258641
ITASAT 1                
1 43786U 18099AE  23240.88036230  .00003385  00000+0  27510-3 0  9992
2 43786  97.5706 301.5068 0015409 243.8831 116.0808 15.00165112258545
KAZSCISAT-1             
1 43787U 18099AF  23240.98083949  .00009257  00000+0  66154-3 0  9994
2 43787  97.5519 301.7073 0007102 228.9372 131.1241 15.04676362258717
EAGLET-I                
1 43790U 18099AJ  23241.14572146  .00002263  00000+0  18832-3 0  9999
2 43790  97.5711 302.1699 0010959 243.3268 116.6833 14.99615833258313
ESEO                    
1 43792U 18099AL  23241.11304841  .00002295  00000+0  19929-3 0  9996
2 43792  97.5635 300.3792 0011312 233.6551 126.3628 14.97949650258309
CSIM-FD                 
1 43793U 18099AM  23240.67531270  .00009252  00000+0  64428-3 0  9999
2 43793  97.5707 304.6356 0014761 235.9753 124.0072 15.05582699258486
ASTROCAST 0.1           
1 43798U 18099AS  23240.82774156  .00008137  00000+0  59341-3 0  9992
2 43798  97.5807 304.0365 0011340 208.9861 151.0736 15.03923204258684
JY1SAT (JO-97)          
1 43803U 18099AX  23240.83167110  .00005618  00000+0  43567-3 0  9990
2 43803  97.5708 301.5934 0011765 208.1294 151.9296 15.01722971258594
SUOMI-100               
1 43804U 18099AY  23241.11248537  .00005567  00000+0  43525-3 0  9993
2 43804  97.5751 301.6212 0017042 225.5433 134.4399 15.01356209258637
AL-FARABI 2             
1 43805U 18099AZ  23241.09851875  .00007284  00000+0  54000-3 0  9994
2 43805  97.5571 302.7280 0011837 204.4766 155.5899 15.03333573258704
CENTAURI-1              
1 43809U 18099BD  23240.95123545  .00003091  00000+0  25300-3 0  9991
2 43809  97.5660 301.3907 0015194 241.4872 118.4822 14.99948549258272
CHOMPTT                 
1 43855U 18104G   23240.71279841  .00028619  00000+0  61754-3 0  9990
2 43855  85.0274 116.6762 0013441  53.6289 306.6203 15.44311200261750
UWE-4                   
1 43880U 18111E   23240.67425673  .00006370  00000+0  47472-3 0  9998
2 43880  97.6283 144.7483 0016480 288.4415  71.5019 15.03140571255251
ZACUBE-2                
1 43907U 18111AH  23241.37514823  .00028277  00000+0  60302-3 0  9999
2 43907  97.1260 119.4125 0011014 314.8287  45.2066 15.44800555260438
MICRODRAGON             
1 43935U 19003D   23240.84524979  .00020157  00000+0  55405-3 0  9992
2 43935  97.1018 257.8457 0014691  58.4773 301.7905 15.37126717256586
FORMOSAT 7-4            
1 44350U 19036M   23240.72442758  .00006564  00000+0  36735-3 0  9992
2 44350  23.9985 249.5835 0000171 109.2562 250.7960 15.10498211229671
METEOR-M2 2             
1 44387U 19038A   23241.39754912  .00000044  00000+0  38783-4 0  9999
2 44387  98.7825 205.1764 0002468  86.6061 273.5400 14.23801137215727
VDNH-80                 
1 44392U 19038G   23241.42113154  .00023983  00000+0  74932-3 0  9998
2 44392  97.6766 225.2229 0015907  54.1935 306.0782 15.33050746229517
D-STAR ONE (LIGHTSAT)   
1 44393U 19038H   23240.87767762  .00029651  00000+0  89938-3 0  9997
2 44393  97.6767 224.8309 0015969  55.5149 304.7598 15.33946815229648
AMGU-1 (AMURSAT)        
1 44394U 19038J   23241.39670215  .00030854  00000+0  87042-3 0  9993
2 44394  97.6740 225.8593 0015011  54.1938 306.0697 15.36234674229769
DOT-1                   
1 44399U 19038P   23241.41975867  .00013784  00000+0  55266-3 0  9998
2 44399  97.6876 221.4744 0020885  64.4332 295.9061 15.24931455229434
SOKRAT                  
1 44404U 19038U   23241.22953777  .00031354  00000+0  89995-3 0  9999
2 44404  97.6757 225.1383 0015723  55.8707 304.4025 15.35678836229703
LUCKY-7                 
1 44406U 19038W   23240.87913128  .00016064  00000+0  61933-3 0  9990
2 44406  97.6852 221.7139 0020233  57.8784 302.4414 15.26215373229401
D-STAR ONE (EXOCONNECT) 
1 44410U 19038AA  23240.91159924  .00168045  00000+0  17274-2 0  9991
2 44410  97.6600 231.5522 0008562  73.6986 286.5213 15.64306219230136
NARSSCUBE-2             
1 44415U 19022E   23241.27571206  .00032584  00000+0  51184-3 0  9997
2 44415  51.6345 135.7486 0008443 202.2334 157.8291 15.53306005227656
DUCHIFAT-3              
1 44854U 19089C   23241.42774974  .00008868  00000+0  57696-3 0  9993
2 44854  36.9627  13.1625 0007682 201.0922 158.9506 15.07507693203885
OPS-SAT                 
1 44878U 19092F   23241.07589121  .00019447  00000+0  51892-3 0  9999
2 44878  97.4733  70.9521 0007517 227.1046 132.9568 15.38143217204984
FLORIPASAT-1            
1 44885U 19093G   23241.40287071  .00003218  00000+0  37041-3 0  9993
2 44885  97.8658 321.7714 0013341 194.5039 165.5796 14.86388403199825
BY70-2                  
1 45857U 20042B   23241.38421878  .00020755  00000+0  19740-2 0  9991
2 45857  97.9239 321.6767 0009836 128.1212 232.0895 14.93433207170457
SALSAT                  
1 46495U 20068K   23241.37216954  .00003711  00000+0  24207-3 0  9992
2 46495  97.7738 190.2032 0013777 225.8214 134.1882 15.08448328160105
NETSAT-4                
1 46504U 20068U   23241.36351872  .00005454  00000+0  35288-3 0  9998
2 46504  97.7657 187.9299 0008705 283.1769  76.8487 15.08576314159930
NETSAT-3                
1 46505U 20068V   23241.07463036  .00007148  00000+0  46399-3 0  9990
2 46505  97.7634 187.4198 0008183 295.2069  64.8309 15.08345500159892
NETSAT-1                
1 46506U 20068W   23241.40046614  .00005725  00000+0  37694-3 0  9994
2 46506  97.7651 187.5980 0006841 307.2260  52.8342 15.07923315159932
NETSAT-2                
1 46507U 20068X   23241.36494704  .00005548  00000+0  35974-3 0  9999
2 46507  97.7644 187.6559 0006016 318.1196  41.9571 15.08502106159880
UVSQ-SAT                
1 47438U 21006AB  23240.90536197  .00017267  00000+0  65833-3 0  9996
2 47438  97.3785 297.0564 0009802 176.3641 183.7670 15.26711818143737
SOMP2B                  
1 47445U 21006AJ  23241.39062981  .00014672  00000+0  57412-3 0  9994
2 47445  97.3750 296.6686 0009629 179.6092 180.5156 15.25883884143770
CAS-5A                  
1 54684U 22167C   23241.39633484  .00012308  00000+0  64560-3 0  9994
2 54684  97.5709  18.5981 0013844  83.9717 276.3093 15.15815975 39765
